{"type": "FeatureCollection", "features": [ {"type": "Feature", "properties": {"norad_id": 41556, "name": "ZIYUAN 3-02 (ZY 3-02)", "group": "resource", "lat": 13.477523934650096, "lon": -112.31483873290587, "alt_km": 500.028544818083, "timestamp": "2025-12-17T19:34:07.702113+00:00", "meta": {"OBJECT_NAME": "ZIYUAN 3-02 (ZY 3-02)", "OBJECT_ID": "2016-033A", "EPOCH": "2025-12-17T07:47:15.587808", "MEAN_MOTION": 15.21121996, "ECCENTRICITY": 0.00108287, "INCLINATION": 97.4045, "RA_OF_ASC_NODE": 65.4165, "ARG_OF_PERICENTER": 229.3062, "MEAN_ANOMALY": 130.7233, "EPHEMERIS_TYPE": 0, "CLASSIFICATION_TYPE": "U", "NORAD_CAT_ID": 41556, "ELEMENT_SET_NO": 999, "REV_AT_EPOCH": 53033, "BSTAR": 0.00025133196, "MEAN_MOTION_DOT": 5.532e-05, "MEAN_MOTION_DDOT": 0}, "tle": {"line1": "1 41556U 16033A   25351.32448597  .00005532  00000+0  25133-3 0  9993", "line2": "2 41556  97.4045  65.4165 0010828 229.3062 130.7233 15.21121996530332"}}, "geometry": {"type": "Point", "coordinates": [-112.31483873290587, 13.477523934650096]}}, {"type": "Feature", "properties": {"norad_id": 41599, "name": "CARTOSAT-2C", "group": "resource", "lat": 69.59870466662, "lon": 28.337287267284516, "alt_km": 494.51998088588607, "timestamp": "2025-12-17T19:34:07.702123+00:00", "meta": {"OBJECT_NAME": "CARTOSAT-2C", "OBJECT_ID": "2016-040A", "EPOCH": "2025-12-17T08:11:32.678880", "MEAN_MOTION": 15.19155659, "ECCENTRICITY": 0.00113484, "INCLINATION": 97.4764, "RA_OF_ASC_NODE": 48.5451, "ARG_OF_PERICENTER": 48.4708, "MEAN_ANOMALY": 311.7499, "EPHEMERIS_TYPE": 0, "CLASSIFICATION_TYPE": "U", "NORAD_CAT_ID": 41599, "ELEMENT_SET_NO": 999, "REV_AT_EPOCH": 52610, "BSTAR": 0.00015379134, "MEAN_MOTION_DOT": 3.168e-05, "MEAN_MOTION_DDOT": 0}, "tle": {"line1": "1 41599U 16040A   25351.34135045  .00003168  00000+0  15379-3 0  9995", "line2": "2 41599  97.4764  48.5451 0011348  48.4708 311.7499 15.19155659526107"}}, "geometry": {"type": "Point", "coordinates": [28.337287267284516, 69.59870466662]}}, {"type": "Feature", "properties": {"norad_id": 41601, "name": "SKYSAT-C1", "group": "resource", "lat": 10.266334911865503, "lon": 27.27135304409448, "alt_km": 468.27595715556527, "timestamp": "2025-12-17T19:34:07.702133+00:00", "meta": {"OBJECT_NAME": "SKYSAT-C1", "OBJECT_ID": "2016-040C", "EPOCH": "2025-12-17T08:33:19.646496", "MEAN_MOTION": 15.32674268, "ECCENTRICITY": 0.0001827, "INCLINATION": 96.9823, "RA_OF_ASC_NODE": 28.1102, "ARG_OF_PERICENTER": 0.0968, "MEAN_ANOMALY": 0.0275, "EPHEMERIS_TYPE": 0, "CLASSIFICATION_TYPE": "U", "NORAD_CAT_ID": 41601, "ELEMENT_SET_NO": 999, "REV_AT_EPOCH": 52998, "BSTAR": 0.00024488865, "MEAN_MOTION_DOT": 7.656e-05, "MEAN_MOTION_DDOT": 0}, "tle": {"line1": "1 41601U 16040C   25351.35647739  .00007656  00000+0  24489-3 0  9996", "line2": "2 41601  96.9823  28.1102 0001827   0.0968   0.0275 15.32674268529987"}}, "geometry": {"type": "Point", "coordinates": [27.27135304409448, 10.266334911865503]}}, {"type": "Feature", "properties": {"norad_id": 41603, "name": "LAPAN-A3", "group": "resource", "lat": 44.646035663642394, "lon": 176.30203872532277, "alt_km": 473.62574789046175, "timestamp": "2025-12-17T19:34:07.702144+00:00", "meta": {"OBJECT_NAME": "LAPAN-A3", "OBJECT_ID": "2016-040E", "EPOCH": "2025-12-17T06:26:15.478080", "MEAN_MOTION": 15.31589311, "ECCENTRICITY": 0.00091919, "INCLINATION": 97.1424, "RA_OF_ASC_NODE": 348.66, "ARG_OF_PERICENTER": 315.8152, "MEAN_ANOMALY": 44.2355, "EPHEMERIS_TYPE": 0, "CLASSIFICATION_TYPE": "U", "NORAD_CAT_ID": 41603, "ELEMENT_SET_NO": 999, "REV_AT_EPOCH": 52695, "BSTAR": 0.00011306942, "MEAN_MOTION_DOT": 3.378e-05, "MEAN_MOTION_DDOT": 0}, "tle": {"line1": "1 41603U 16040E   25351.26823470  .00003378  00000+0  11307-3 0  9998", "line2": "2 41603  97.1424 348.6600 0009191 315.8152  44.2355 15.31589311526952"}}, "geometry": {"type": "Point", "coordinates": [176.30203872532277, 44.646035663642394]}}, {"type": "Feature", "properties": {"norad_id": 41604, "name": "BIROS", "group": "resource", "lat": -42.66743964389441, "lon": 30.0262236631769, "alt_km": 307.0042487686851, "timestamp": "2025-12-17T19:34:07.702154+00:00", "meta": {"OBJECT_NAME": "BIROS", "OBJECT_ID": "2016-040F", "EPOCH": "2025-12-17T01:38:28.018176", "MEAN_MOTION": 15.91374063, "ECCENTRICITY": 0.00037455, "INCLINATION": 97.0679, "RA_OF_ASC_NODE": 22.68, "ARG_OF_PERICENTER": 137.3432, "MEAN_ANOMALY": 222.8134, "EPHEMERIS_TYPE": 0, "CLASSIFICATION_TYPE": "U", "NORAD_CAT_ID": 41604, "ELEMENT_SET_NO": 999, "REV_AT_EPOCH": 52941, "BSTAR": 0.00054683239, "MEAN_MOTION_DOT": 0.00173773, "MEAN_MOTION_DDOT": 1.3037972e-05}, "tle": {"line1": "1 41604U 16040F   25351.06837984  .00173773  13038-4  54683-3 0  9993", "line2": "2 41604  97.0679  22.6800 0003745 137.3432 222.8134 15.91374063529417"}}, "geometry": {"type": "Point", "coordinates": [30.0262236631769, -42.66743964389441]}}, {"type": "Feature", "properties": {"norad_id": 41727, "name": "GAOFEN-3", "group": "resource", "lat": 78.5274747572618, "lon": -49.427760027030025, "alt_km": 743.0098078848459, "timestamp": "2025-12-17T19:34:07.702164+00:00", "meta": {"OBJECT_NAME": "GAOFEN-3", "OBJECT_ID": "2016-049A", "EPOCH": "2025-12-17T07:32:01.746240", "MEAN_MOTION": 14.4221456, "ECCENTRICITY": 0.00012968, "INCLINATION": 98.4038, "RA_OF_ASC_NODE": 356.8309, "ARG_OF_PERICENTER": 59.2902, "MEAN_ANOMALY": 300.8416, "EPHEMERIS_TYPE": 0, "CLASSIFICATION_TYPE": "U", "NORAD_CAT_ID": 41727, "ELEMENT_SET_NO": 999, "REV_AT_EPOCH": 49243, "BSTAR": 2.50262e-06, "MEAN_MOTION_DOT": -3.5e-07, "MEAN_MOTION_DDOT": 0}, "tle": {"line1": "1 41727U 16049A   25351.31390910 -.00000035  00000+0  25026-5 0  9991", "line2": "2 41727  98.4038 356.8309 0001296  59.2902 300.8416 14.42214560492437"}}, "geometry": {"type": "Point", "coordinates": [-49.427760027030025, 78.5274747572618]}}, {"type": "Feature", "properties": {"norad_id": 41771, "name": "SKYSAT-C4", "group": "resource", "lat": 56.89839086278573, "lon": -152.4790286740386, "alt_km": 432.35982761804553, "timestamp": "2025-12-17T19:34:07.702174+00:00", "meta": {"OBJECT_NAME": "SKYSAT-C4", "OBJECT_ID": "2016-058B", "EPOCH": "2025-12-17T00:21:19.311840", "MEAN_MOTION": 15.42373505, "ECCENTRICITY": 0.00019016, "INCLINATION": 96.9372, "RA_OF_ASC_NODE": 15.995, "ARG_OF_PERICENTER": 132.1299, "MEAN_ANOMALY": 228.0111, "EPHEMERIS_TYPE": 0, "CLASSIFICATION_TYPE": "U", "NORAD_CAT_ID": 41771, "ELEMENT_SET_NO": 999, "REV_AT_EPOCH": 51733, "BSTAR": 0.00029968185, "MEAN_MOTION_DOT": 0.0001286, "MEAN_MOTION_DDOT": 0}, "tle": {"line1": "1 41771U 16058B   25351.01480685  .00012860  00000+0  29968-3 0  9991", "line2": "2 41771  96.9372  15.9950 0001901 132.1299 228.0111 15.42373505517334"}}, "geometry": {"type": "Point", "coordinates": [-152.4790286740386, 56.89839086278573]}}, {"type": "Feature", "properties": {"norad_id": 41772, "name": "SKYSAT-C5", "group": "resource", "lat": -67.11710134799918, "lon": -161.7595723417793, "alt_km": 468.8899658738783, "timestamp": "2025-12-17T19:34:07.702184+00:00", "meta": {"OBJECT_NAME": "SKYSAT-C5", "OBJECT_ID": "2016-058C", "EPOCH": "2025-12-17T02:50:02.420448", "MEAN_MOTION": 15.33955004, "ECCENTRICITY": 0.00037744, "INCLINATION": 97.0757, "RA_OF_ASC_NODE": 34.6878, "ARG_OF_PERICENTER": 272.9339, "MEAN_ANOMALY": 87.1473, "EPHEMERIS_TYPE": 0, "CLASSIFICATION_TYPE": "U", "NORAD_CAT_ID": 41772, "ELEMENT_SET_NO": 999, "REV_AT_EPOCH": 51583, "BSTAR": 0.00023470132, "MEAN_MOTION_DOT": 7.636e-05, "MEAN_MOTION_DDOT": 0}, "tle": {"line1": "1 41772U 16058C   25351.11808357  .00007636  00000+0  23470-3 0  9990", "line2": "2 41772  97.0757  34.6878 0003774 272.9339  87.1473 15.33955004515837"}}, "geometry": {"type": "Point", "coordinates": [-161.7595723417793, -67.11710134799918]}}, {"type": "Feature", "properties": {"norad_id": 41773, "name": "SKYSAT-C2", "group": "resource", "lat": -43.6916016159579, "lon": 22.903940453385644, "alt_km": 459.4973662919638, "timestamp": "2025-12-17T19:34:07.702195+00:00", "meta": {"OBJECT_NAME": "SKYSAT-C2", "OBJECT_ID": "2016-058D", "EPOCH": "2025-12-17T01:00:53.137152", "MEAN_MOTION": 15.37369268, "ECCENTRICITY": 0.00037823, "INCLINATION": 97.0359, "RA_OF_ASC_NODE": 15.3872, "ARG_OF_PERICENTER": 23.474, "MEAN_ANOMALY": 336.6678, "EPHEMERIS_TYPE": 0, "CLASSIFICATION_TYPE": "U", "NORAD_CAT_ID": 41773, "ELEMENT_SET_NO": 999, "REV_AT_EPOCH": 51702, "BSTAR": 0.00027040004, "MEAN_MOTION_DOT": 9.831e-05, "MEAN_MOTION_DDOT": 0}, "tle": {"line1": "1 41773U 16058D   25351.04228168  .00009831  00000+0  27040-3 0  9995", "line2": "2 41773  97.0359  15.3872 0003782  23.4740 336.6678 15.37369268517027"}}, "geometry": {"type": "Point", "coordinates": [22.903940453385644, -43.6916016159579]}}, {"type": "Feature", "properties": {"norad_id": 41774, "name": "SKYSAT-C3", "group": "resource", "lat": -81.34196725094213, "lon": 78.33588593891015, "alt_km": 441.2459098155714, "timestamp": "2025-12-17T19:34:07.702205+00:00", "meta": {"OBJECT_NAME": "SKYSAT-C3", "OBJECT_ID": "2016-058E", "EPOCH": "2025-12-17T01:16:38.290944", "MEAN_MOTION": 15.44550815, "ECCENTRICITY": 0.00018404, "INCLINATION": 96.9297, "RA_OF_ASC_NODE": 24.5989, "ARG_OF_PERICENTER": 107.4395, "MEAN_ANOMALY": 252.7056, "EPHEMERIS_TYPE": 0, "CLASSIFICATION_TYPE": "U", "NORAD_CAT_ID": 41774, "ELEMENT_SET_NO": 999, "REV_AT_EPOCH": 51792, "BSTAR": 0.00035232141, "MEAN_MOTION_DOT": 0.00016291, "MEAN_MOTION_DDOT": 0}, "tle": {"line1": "1 41774U 16058E   25351.05322096  .00016291  00000+0  35232-3 0  9992", "line2": "2 41774  96.9297  24.5989 0001840 107.4395 252.7056 15.44550815517925"}}, "geometry": {"type": "Point", "coordinates": [78.33588593891015, -81.34196725094213]}}]}